OBJECT_NAME,OBJECT_ID,EPOCH,MEAN_MOTION,ECCENTRICITY,INCLINATION,RA_OF_ASC_NODE,ARG_OF_PERICENTER,MEAN_ANOMALY,EPHEMERIS_TYPE,CLASSIFICATION_TYPE,NORAD_CAT_ID,ELEMENT_SET_NO,REV_AT_EPOCH,BSTAR,MEAN_MOTION_DOT,MEAN_MOTION_DDOT
STARLINK-34383,2025-123Q,2026-07-04T04:31:05.979360,14.98342814,.00035076,70.0008,260.9281,273.5190,86.5568,0,U,64305,999,5906,.63448339E-3,.7488E-4,0
STARLINK-34355,2025-123R,2026-07-03T22:00:33.110496,14.98338165,.00036018,70.0012,261.5885,270.4644,89.6102,0,U,64306,999,5902,.31834441E-3,.3708E-4,0
STARLINK-34380,2025-123S,2026-07-03T21:54:32.523552,14.98338243,.00033785,70.0007,261.5742,269.7116,90.3656,0,U,64307,999,5902,.33296895E-3,.3883E-4,0
STARLINK-34374,2025-123T,2026-07-03T15:11:59.248896,14.98349649,.00039972,70.0002,262.2008,276.0206,84.0498,0,U,64308,999,5898,.14421383E-2,.17166E-3,0
STARLINK-34370,2025-123U,2026-07-03T23:00:37.308960,14.98339924,.00042162,69.9996,261.3282,269.0261,91.0415,0,U,64309,999,5903,.54531128E-3,.6422E-4,0
STARLINK-34357,2025-123V,2026-07-03T21:54:18.073152,14.98338741,.00037602,70.0008,261.5784,270.5056,89.5672,0,U,64310,999,5902,.37781866E-3,.4419E-4,0
STARLINK-34368,2025-123W,2026-07-03T15:17:44.718432,14.98339669,.0003183,70.0007,262.2122,271.4311,88.6483,0,U,64311,999,5898,.30515329E-3,.3551E-4,0
STARLINK-34384,2025-123X,2026-07-03T23:06:25.159680,14.98323623,.00039821,69.9998,261.3487,269.0438,91.0265,0,U,64312,999,5903,.38592881E-3,.4514E-4,0
STARLINK-34358,2025-123Y,2026-07-04T05:18:54.320256,14.98331453,.0003322,69.9998,260.6451,268.7091,91.3687,0,U,64313,999,5907,.11571905E-3,.1288E-4,0
STARLINK-34354,2025-123Z,2026-07-03T14:41:40.429536,14.98347584,.00037715,70.0000,262.1298,269.2215,90.8512,0,U,64314,999,5898,.87557709E-3,.10375E-3,0
STARLINK-34387,2025-123AA,2026-07-03T16:05:48.220800,14.98344802,.00037163,69.9999,261.9330,270.3542,89.7191,0,U,64315,999,5899,.49768056E-3,.5853E-4,0
STARLINK-33590,2025-123AB,2026-07-04T05:07:07.506048,14.98340370,.00037727,69.9997,260.6082,267.2322,92.8406,0,U,64316,999,5907,.32692901E-3,.3811E-4,0
STARLINK-11736 [DTC],2025-124A,2026-07-03T23:59:16.859616,15.71066018,.00019433,43.0006,48.4309,357.6765,2.4093,0,U,64317,999,6112,.20085826E-2,.268311E-2,0
STARLINK-11673 [DTC],2025-124B,2026-07-04T01:00:14.628672,15.70883025,.00017427,42.9997,47.8784,266.5843,93.4825,0,U,64318,999,6113,.18330577E-2,.242177E-2,0
STARLINK-11671 [DTC],2025-124C,2026-07-04T00:44:56.893056,15.70893978,.00029452,43.0027,47.7912,271.5265,88.5265,0,U,64319,999,6113,.14184575E-2,.18613E-2,0
STARLINK-11594 [DTC],2025-124D,2026-07-04T00:06:55.168416,15.70991500,.00006646,42.9992,48.4715,319.9227,40.1592,0,U,64320,999,6112,.13643734E-2,.179593E-2,0
STARLINK-11596 [DTC],2025-124E,2026-07-04T00:00:02.999808,15.70819042,.00017394,43.0007,48.3554,267.4143,125.8163,0,U,64321,999,605,.23859578E-3,.30251E-3,0
STARLINK-11747 [DTC],2025-124F,2026-07-03T23:36:19.523520,15.70870490,.00024883,43.0021,48.3026,270.6644,89.3939,0,U,64322,999,6112,.14880358E-2,.195298E-2,0
STARLINK-11728 [DTC],2025-124G,2026-07-04T01:53:34.207296,15.70872852,.00023714,42.9997,47.2781,241.1443,118.9186,0,U,64323,999,6114,.20859683E-2,.276699E-2,0
STARLINK-11696 [DTC],2025-124H,2026-07-04T00:37:18.122016,15.70877960,.00015452,42.9996,47.7474,271.5540,88.5151,0,U,64324,999,6113,.12562566E-2,.164232E-2,0
STARLINK-11698 [DTC],2025-124J,2026-07-04T02:17:49.225632,15.70883079,.00017558,43.0003,47.4123,271.0049,89.0617,0,U,64325,999,6114,.19150535E-2,.253376E-2,0
STARLINK-11674 [DTC],2025-124L,2026-07-04T06:00:02.999808,15.70910814,.00021364,43.0006,46.3204,261.9880,317.1189,0,U,64327,999,588,-.73371408E-3,-.93827E-3,0
STARLINK-11707 [DTC],2025-124M,2026-07-04T00:52:35.662368,15.70869602,.00017395,43.0018,47.8310,269.8835,90.1834,0,U,64328,999,6113,.14085763E-2,.184591E-2,0
STARLINK-11734 [DTC],2025-124N,2026-07-04T00:14:21.656832,15.71115782,.00037294,43.0012,47.6139,261.1180,98.9265,0,U,64329,999,6113,.24155214E-2,.325739E-2,0
STARLINK-34252,2025-124P,2026-07-04T01:06:52.813440,15.27593489,.00012467,43.0009,184.7689,272.5133,87.5576,0,U,64330,999,5957,.63217585E-3,.17182E-3,0
STARLINK-34050,2025-124Q,2026-07-04T00:52:04.861632,15.27585676,.00011917,42.9987,184.6837,262.5593,97.5123,0,U,64331,999,6063,.700295E-3,.19062E-3,0
STARLINK-33782,2025-124R,2026-07-04T06:52:03.080928,15.27595410,.00016113,43.0012,183.1155,278.0269,82.0400,0,U,64332,999,5961,.82184602E-3,.22433E-3,0
STARLINK-34207,2025-124S,2026-07-04T01:01:19.873632,15.27589613,.00011095,42.9994,184.7350,265.4711,94.6014,0,U,64333,999,5957,.59455329E-3,.16139E-3,0
STARLINK-34260,2025-124T,2026-07-04T01:12:25.907040,15.27592995,.00009648,43.0001,184.7953,281.8311,78.2433,0,U,64334,999,5957,.65539484E-3,.17824E-3,0
STARLINK-33855,2025-124U,2026-07-04T06:46:30.724320,15.27559151,.0002578,43.0021,183.0855,275.1069,84.9488,0,U,64335,999,5961,.76434602E-3,.20818E-3,0
