STARLINK-34383          
1 64305U 25123Q   26185.18826365  .00007488  00000+0  63448-3 0  9996
2 64305  70.0008 260.9281 0003507 273.5190  86.5568 14.98342814 59067
STARLINK-34355          
1 64306U 25123R   26184.91704989  .00003708  00000+0  31834-3 0  9999
2 64306  70.0012 261.5885 0003601 270.4644  89.6102 14.98338165 59023
STARLINK-34380          
1 64307U 25123S   26184.91287643  .00003883  00000+0  33297-3 0  9992
2 64307  70.0007 261.5742 0003378 269.7116  90.3656 14.98338243 59026
STARLINK-34374          
1 64308U 25123T   26184.63332464  .00017166  00000+0  14421-2 0  9990
2 64308  70.0002 262.2008 0003997 276.0206  84.0498 14.98349649 58983
STARLINK-34370          
1 64309U 25123U   26184.95876515  .00006422  00000+0  54531-3 0  9996
2 64309  69.9996 261.3282 0004216 269.0261  91.0415 14.98339924 59034
STARLINK-34357          
1 64310U 25123V   26184.91270918  .00004419  00000+0  37782-3 0  9992
2 64310  70.0008 261.5784 0003760 270.5056  89.5672 14.98338741 59026
STARLINK-34368          
1 64311U 25123W   26184.63732313  .00003551  00000+0  30515-3 0  9997
2 64311  70.0007 262.2122 0003183 271.4311  88.6483 14.98339669 58987
STARLINK-34384          
1 64312U 25123X   26184.96279120  .00004514  00000+0  38593-3 0  9990
2 64312  69.9998 261.3487 0003982 269.0438  91.0265 14.98323623 59034
STARLINK-34358          
1 64313U 25123Y   26185.22146204  .00001288  00000+0  11572-3 0  9990
2 64313  69.9998 260.6451 0003322 268.7091  91.3687 14.98331453 59072
STARLINK-34354          
1 64314U 25123Z   26184.61227349  .00010375  00000+0  87558-3 0  9997
2 64314  70.0000 262.1298 0003771 269.2215  90.8512 14.98347584 58980
STARLINK-34387          
1 64315U 25123AA  26184.67069700  .00005853  00000+0  49768-3 0  9995
2 64315  69.9999 261.9330 0003716 270.3542  89.7191 14.98344802 58995
STARLINK-33590          
1 64316U 25123AB  26185.21328132  .00003811  00000+0  32693-3 0  9995
2 64316  69.9997 260.6082 0003772 267.2322  92.8406 14.98340370 59077
STARLINK-11736 [DTC]    
1 64317U 25124A   26184.99950069  .00268311  00000+0  20086-2 0  9991
2 64317  43.0006  48.4309 0001943 357.6765   2.4093 15.71066018 61123
STARLINK-11673 [DTC]    
1 64318U 25124B   26185.04183598  .00242177  00000+0  18331-2 0  9996
2 64318  42.9997  47.8784 0001742 266.5843  93.4825 15.70883025 61131
STARLINK-11671 [DTC]    
1 64319U 25124C   26185.03121404  .00186130  00000+0  14185-2 0  9993
2 64319  43.0027  47.7912 0002945 271.5265  88.5265 15.70893978 61131
STARLINK-11594 [DTC]    
1 64320U 25124D   26185.00480519  .00179593  00000+0  13644-2 0  9991
2 64320  42.9992  48.4715 0000664 319.9227  40.1592 15.70991500 61128
STARLINK-11596 [DTC]    
1 64321U 25124E   26185.00003472  .00030251  00000+0  23860-3 0  9990
2 64321  43.0007  48.3554 0001739 267.4143 125.8163 15.70819042  6052
STARLINK-11747 [DTC]    
1 64322U 25124F   26184.98355930  .00195298  00000+0  14880-2 0  9990
2 64322  43.0021  48.3026 0002488 270.6644  89.3939 15.70870490 61125
STARLINK-11728 [DTC]    
1 64323U 25124G   26185.07886814  .00276699  00000+0  20860-2 0  9992
2 64323  42.9997  47.2781 0002371 241.1443 118.9186 15.70872852 61142
STARLINK-11696 [DTC]    
1 64324U 25124H   26185.02590419  .00164232  00000+0  12563-2 0  9991
2 64324  42.9996  47.7474 0001545 271.5540  88.5151 15.70877960 61131
STARLINK-11698 [DTC]    
1 64325U 25124J   26185.09570863  .00253376  00000+0  19151-2 0  9998
2 64325  43.0003  47.4123 0001755 271.0049  89.0617 15.70883079 61145
STARLINK-11674 [DTC]    
1 64327U 25124L   26185.25003472 -.00093827  00000+0 -73371-3 0  9995
2 64327  43.0006  46.3204 0002136 261.9880 317.1189 15.70910814  5889
STARLINK-11707 [DTC]    
1 64328U 25124M   26185.03652387  .00184591  00000+0  14086-2 0  9991
2 64328  43.0018  47.8310 0001739 269.8835  90.1834 15.70869602 61135
STARLINK-11734 [DTC]    
1 64329U 25124N   26185.00997288  .00325739  00000+0  24155-2 0  9990
2 64329  43.0012  47.6139 0003729 261.1180  98.9265 15.71115782 61134
STARLINK-34252          
1 64330U 25124P   26185.04644460  .00017182  00000+0  63218-3 0  9991
2 64330  43.0009 184.7689 0001246 272.5133  87.5576 15.27593489 59570
STARLINK-34050          
1 64331U 25124Q   26185.03616738  .00019062  00000+0  70029-3 0  9995
2 64331  42.9987 184.6837 0001191 262.5593  97.5123 15.27585676 60633
STARLINK-33782          
1 64332U 25124R   26185.28614677  .00022433  00000+0  82185-3 0  9995
2 64332  43.0012 183.1155 0001611 278.0269  82.0400 15.27595410 59611
STARLINK-34207          
1 64333U 25124S   26185.04259113  .00016139  00000+0  59455-3 0  9990
2 64333  42.9994 184.7350 0001109 265.4711  94.6014 15.27589613 59570
STARLINK-34260          
1 64334U 25124T   26185.05029985  .00017824  00000+0  65539-3 0  9996
2 64334  43.0001 184.7953 0000964 281.8311  78.2433 15.27592995 59577
STARLINK-33855          
1 64335U 25124U   26185.28230005  .00020818  00000+0  76435-3 0  9993
2 64335  43.0021 183.0855 0002578 275.1069  84.9488 15.27559151 59618
